{
  "norad_id": 46079,
  "name": "STARLINK-1566",
  "history": [
    {
      "epoch": "2026-03-28T18:33:27.385632Z",
      "apogee_km": 548.2385607856941,
      "perigee_km": 546.1883800324349,
      "latitude_deg": 4.067905022581625e-05,
      "longitude_deg": -93.60404609604645,
      "height_km": 547.9320186535477,
      "semi_major_axis_km": 6925.350470409065,
      "eccentricity": 0.00014802,
      "inclination_deg": 53.056,
      "raan_deg": 10.9489,
      "arg_perigee_deg": 81.0838,
      "mean_anomaly_deg": 279.0319,
      "mean_motion_rev_day": 15.06399376
    },
    {
      "epoch": "2026-03-29T00:55:37.106688Z",
      "apogee_km": 548.2330297270719,
      "perigee_km": 546.1789729928687,
      "latitude_deg": -1.658604163167771e-05,
      "longitude_deg": 169.40272599972306,
      "height_km": 547.8722291097414,
      "semi_major_axis_km": 6925.34300135997,
      "eccentricity": 0.0001483,
      "inclination_deg": 53.0546,
      "raan_deg": 9.7578,
      "arg_perigee_deg": 78.14,
      "mean_anomaly_deg": 281.9755,
      "mean_motion_rev_day": 15.06401813
    },
    {
      "epoch": "2026-03-30T00:48:42.492096Z",
      "apogee_km": 548.2971875108542,
      "perigee_km": 546.0871764622989,
      "latitude_deg": 3.50272179669707e-05,
      "longitude_deg": 165.6815108481586,
      "height_km": 548.0164051423191,
      "semi_major_axis_km": 6925.329181986576,
      "eccentricity": 0.00015956,
      "inclination_deg": 53.0541,
      "raan_deg": 5.2899,
      "arg_perigee_deg": 87.2603,
      "mean_anomaly_deg": 272.8569,
      "mean_motion_rev_day": 15.06406322
    }
  ]
}